start=new Date('2022-01-08T00:00:00.000Z').valueOf();
sats=[{"NORAD_CAT_ID":"48588","BSTAR":"-0.00002452700000","SEMIMAJOR_AXIS":"6925.368","TIME_SYSTEM":"UTC","MEAN_MOTION_DDOT":"0.0000000000000","ELEMENT_SET_NO":"999","RCS_SIZE":"LARGE","RA_OF_ASC_NODE":"124.2898","MEAN_ANOMALY":"257.4949","REV_AT_EPOCH":"3579","OBJECT_NAME":"STARLINK-2244","COUNTRY_CODE":"US","ECCENTRICITY":"0.00015120","REF_FRAME":"TEME","PERIOD":"95.593","LAUNCH_DATE":"2021-05-15","CENTER_NAME":"EARTH","CLASSIFICATION_TYPE":"U","APOAPSIS":"548.280","EPOCH":"2022-01-07T15:48:16.091712","TLE_LINE2":"2 48588  53.0537 124.2898 0001512 102.6209 257.4949 15.06393689 35795","PERIAPSIS":"546.186","MEAN_MOTION_DOT":"-0.00000647","DECAY_DATE":null,"OBJECT_TYPE":"PAYLOAD","ARG_OF_PERICENTER":"102.6209","EPHEMERIS_TYPE":"0","OBJECT_ID":"2021-041AM","SITE":"AFETR","MEAN_ELEMENT_THEORY":"SGP4","MEAN_MOTION":"15.06393689","TLE_LINE1":"1 48588U 21041AM  22007.65851958 -.00000647  00000-0 -24527-4 0  9992","GP_ID":"193427372","FILE":"3266804","INCLINATION":"53.0537"},{"TIME_SYSTEM":"UTC","MEAN_MOTION_DDOT":"0.0000000000000","NORAD_CAT_ID":"48589","SEMIMAJOR_AXIS":"6925.363","BSTAR":"0.00009794000000","MEAN_ANOMALY":"254.1477","RA_OF_ASC_NODE":"124.0025","REV_AT_EPOCH":"3580","RCS_SIZE":"LARGE","ELEMENT_SET_NO":"999","COUNTRY_CODE":"US","REF_FRAME":"TEME","ECCENTRICITY":"0.00018810","OBJECT_NAME":"STARLINK-2245","EPOCH":"2022-01-07T17:18:29.629728","CLASSIFICATION_TYPE":"U","APOAPSIS":"548.531","CENTER_NAME":"EARTH","PERIOD":"95.592","LAUNCH_DATE":"2021-05-15","TLE_LINE2":"2 48589  53.0547 124.0025 0001881 105.9719 254.1477 15.06395222 35805","PERIAPSIS":"545.926","MEAN_MOTION_DOT":"0.00001177","ARG_OF_PERICENTER":"105.9719","DECAY_DATE":null,"OBJECT_TYPE":"PAYLOAD","MEAN_MOTION":"15.06395222","MEAN_ELEMENT_THEORY":"SGP4","OBJECT_ID":"2021-041AN","SITE":"AFETR","EPHEMERIS_TYPE":"0","INCLINATION":"53.0547","GP_ID":"193426359","FILE":"3266804","TLE_LINE1":"1 48589U 21041AN  22007.72117627  .00001177  00000-0  97940-4 0  9995"},{"EPOCH":"2022-01-07T16:18:47.004480","APOAPSIS":"548.407","CLASSIFICATION_TYPE":"U","CENTER_NAME":"EARTH","PERIOD":"95.592","LAUNCH_DATE":"2021-05-15","REF_FRAME":"TEME","COUNTRY_CODE":"US","ECCENTRICITY":"0.00017040","OBJECT_NAME":"STARLINK-2246","REV_AT_EPOCH":"3565","MEAN_ANOMALY":"274.3274","RA_OF_ASC_NODE":"134.1882","RCS_SIZE":"LARGE","ELEMENT_SET_NO":"999","TIME_SYSTEM":"UTC","MEAN_MOTION_DDOT":"0.0000000000000","SEMIMAJOR_AXIS":"6925.362","BSTAR":"0.00001814800000","NORAD_CAT_ID":"48590","INCLINATION":"53.0547","FILE":"3266804","GP_ID":"193426374","TLE_LINE1":"1 48590U 21041AP  22007.67971070 -.00000011  00000-0  18148-4 0  9991","MEAN_MOTION":"15.06395597","MEAN_ELEMENT_THEORY":"SGP4","SITE":"AFETR","OBJECT_ID":"2021-041AP","EPHEMERIS_TYPE":"0","ARG_OF_PERICENTER":"85.7909","OBJECT_TYPE":"PAYLOAD","DECAY_DATE":null,"MEAN_MOTION_DOT":"-0.00000011","PERIAPSIS":"546.047","TLE_LINE2":"2 48590  53.0547 134.1882 0001704  85.7909 274.3274 15.06395597 35657"},{"MEAN_MOTION":"15.06390074","MEAN_ELEMENT_THEORY":"SGP4","OBJECT_ID":"2021-041AQ","SITE":"AFETR","EPHEMERIS_TYPE":"0","INCLINATION":"53.0597","GP_ID":"193426624","FILE":"3266804","TLE_LINE1":"1 48591U 21041AQ  22007.70549565 -.00000848  00000-0 -38059-4 0  9998","TLE_LINE2":"2 48591  53.0597 124.0024 0001651  98.3256 261.7920 15.06390074 36705","PERIAPSIS":"546.101","MEAN_MOTION_DOT":"-0.00000848","ARG_OF_PERICENTER":"98.3256","DECAY_DATE":null,"OBJECT_TYPE":"PAYLOAD","ECCENTRICITY":"0.00016510","COUNTRY_CODE":"US","REF_FRAME":"TEME","OBJECT_NAME":"STARLINK-2248","EPOCH":"2022-01-07T16:55:54.824160","APOAPSIS":"548.387","CLASSIFICATION_TYPE":"U","CENTER_NAME":"EARTH","LAUNCH_DATE":"2021-05-15","PERIOD":"95.593","TIME_SYSTEM":"UTC","MEAN_MOTION_DDOT":"0.0000000000000","NORAD_CAT_ID":"48591","SEMIMAJOR_AXIS":"6925.379","BSTAR":"-0.00003805900000","MEAN_ANOMALY":"261.7920","RA_OF_ASC_NODE":"124.0024","REV_AT_EPOCH":"3670","RCS_SIZE":"LARGE","ELEMENT_SET_NO":"999"},{"INCLINATION":"53.0559","FILE":"3266804","GP_ID":"193427872","TLE_LINE1":"1 48592U 21041AR  22007.84558442 -.00000654  00000-0 -25022-4 0  9999","MEAN_MOTION":"15.06390521","MEAN_ELEMENT_THEORY":"SGP4","SITE":"AFETR","OBJECT_ID":"2021-041AR","EPHEMERIS_TYPE":"0","ARG_OF_PERICENTER":"101.6255","OBJECT_TYPE":"PAYLOAD","DECAY_DATE":null,"MEAN_MOTION_DOT":"-0.00000654","TLE_LINE2":"2 48592  53.0559 133.4538 0001749 101.6255 258.4930 15.06390521 35680","PERIAPSIS":"546.031","EPOCH":"2022-01-07T20:17:38.493888","CLASSIFICATION_TYPE":"U","APOAPSIS":"548.454","CENTER_NAME":"EARTH","LAUNCH_DATE":"2021-05-15","PERIOD":"95.593","REF_FRAME":"TEME","COUNTRY_CODE":"US","ECCENTRICITY":"0.00017490","OBJECT_NAME":"STARLINK-2249","REV_AT_EPOCH":"3568","MEAN_ANOMALY":"258.4930","RA_OF_ASC_NODE":"133.4538","RCS_SIZE":"LARGE","ELEMENT_SET_NO":"999","TIME_SYSTEM":"UTC","MEAN_MOTION_DDOT":"0.0000000000000","SEMIMAJOR_AXIS":"6925.378","BSTAR":"-0.00002502200000","NORAD_CAT_ID":"48592"},{"FILE":"3266804","GP_ID":"193426859","TLE_LINE1":"1 48593U 21041AS  22007.72026293 -.00001806  00000-0 -10235-3 0  9990","INCLINATION":"53.0553","SITE":"AFETR","OBJECT_ID":"2021-041AS","EPHEMERIS_TYPE":"0","MEAN_MOTION":"15.06397259","MEAN_ELEMENT_THEORY":"SGP4","OBJECT_TYPE":"PAYLOAD","DECAY_DATE":null,"ARG_OF_PERICENTER":"103.2627","MEAN_MOTION_DOT":"-0.00001806","TLE_LINE2":"2 48593  53.0553 134.0057 0001912 103.2627 256.8576 15.06397259 35662","PERIAPSIS":"545.898","CENTER_NAME":"EARTH","LAUNCH_DATE":"2021-05-15","PERIOD":"95.592","EPOCH":"2022-01-07T17:17:10.717152","CLASSIFICATION_TYPE":"U","APOAPSIS":"548.546","OBJECT_NAME":"STARLINK-2250","REF_FRAME":"TEME","COUNTRY_CODE":"US","ECCENTRICITY":"0.00019120","ELEMENT_SET_NO":"999","REV_AT_EPOCH":"3566","MEAN_ANOMALY":"256.8576","RA_OF_ASC_NODE":"134.0057","RCS_SIZE":"LARGE","TIME_SYSTEM":"UTC","MEAN_MOTION_DDOT":"0.0000000000000","SEMIMAJOR_AXIS":"6925.357","BSTAR":"-0.00010235000000","NORAD_CAT_ID":"48593"},{"ARG_OF_PERICENTER":"109.4063","DECAY_DATE":null,"OBJECT_TYPE":"PAYLOAD","TLE_LINE2":"2 48594  53.0536 102.7073 0001491 109.4063 336.3042 15.05589263  3594","PERIAPSIS":"548.667","MEAN_MOTION_DOT":"-0.00033015","INCLINATION":"53.0536","TLE_LINE1":"1 48594U 21041AT  22007.91667824 -.00033015  00000-0 -22568-2 0  9991","GP_ID":"193426874","FILE":"3266804","MEAN_ELEMENT_THEORY":"SGP4","MEAN_MOTION":"15.05589263","EPHEMERIS_TYPE":"0","OBJECT_ID":"2021-041AT","SITE":"AFETR","RCS_SIZE":"LARGE","RA_OF_ASC_NODE":"102.7073","MEAN_ANOMALY":"336.3042","REV_AT_EPOCH":"359","ELEMENT_SET_NO":"999","NORAD_CAT_ID":"48594","BSTAR":"-0.00225680000000","SEMIMAJOR_AXIS":"6927.834","MEAN_MOTION_DDOT":"0.0000000000000","TIME_SYSTEM":"UTC","CLASSIFICATION_TYPE":"U","APOAPSIS":"550.732","EPOCH":"2022-01-07T22:00:00.999936","LAUNCH_DATE":"2021-05-15","PERIOD":"95.644","CENTER_NAME":"EARTH","REF_FRAME":"TEME","COUNTRY_CODE":"US","ECCENTRICITY":"0.00014910","OBJECT_NAME":"STARLINK-2251"},{"TIME_SYSTEM":"UTC","MEAN_MOTION_DDOT":"0.0000000000000","NORAD_CAT_ID":"48595","BSTAR":"-0.00003533200000","SEMIMAJOR_AXIS":"6925.381","ELEMENT_SET_NO":"999","RA_OF_ASC_NODE":"133.4960","MEAN_ANOMALY":"262.1925","REV_AT_EPOCH":"3695","RCS_SIZE":"LARGE","OBJECT_NAME":"STARLINK-2252","COUNTRY_CODE":"US","REF_FRAME":"TEME","ECCENTRICITY":"0.00015380","CENTER_NAME":"EARTH","LAUNCH_DATE":"2021-05-15","PERIOD":"95.593","EPOCH":"2022-01-07T20:01:42.988512","CLASSIFICATION_TYPE":"U","APOAPSIS":"548.311","TLE_LINE2":"2 48595  53.0556 133.4960 0001538  97.9238 262.1925 15.06389427 36953","PERIAPSIS":"546.181","MEAN_MOTION_DOT":"-0.00000808","DECAY_DATE":null,"OBJECT_TYPE":"PAYLOAD","ARG_OF_PERICENTER":"97.9238","OBJECT_ID":"2021-041AU","SITE":"AFETR","EPHEMERIS_TYPE":"0","MEAN_MOTION":"15.06389427","MEAN_ELEMENT_THEORY":"SGP4","GP_ID":"193427124","FILE":"3266804","TLE_LINE1":"1 48595U 21041AU  22007.83452533 -.00000808  00000-0 -35332-4 0  9991","INCLINATION":"53.0556"},{"GP_ID":"193427373","FILE":"3266804","TLE_LINE1":"1 48596U 21041AV  22007.85664385 -.00000067  00000-0  14439-4 0  9995","INCLINATION":"53.0552","OBJECT_ID":"2021-041AV","SITE":"AFETR","EPHEMERIS_TYPE":"0","MEAN_MOTION":"15.06394507","MEAN_ELEMENT_THEORY":"SGP4","DECAY_DATE":null,"OBJECT_TYPE":"PAYLOAD","ARG_OF_PERICENTER":"92.4738","PERIAPSIS":"545.860","TLE_LINE2":"2 48596  53.0552 133.3939 0001979  92.4738 267.6477 15.06394507 36147","MEAN_MOTION_DOT":"-0.00000067","CENTER_NAME":"EARTH","LAUNCH_DATE":"2021-05-15","PERIOD":"95.592","EPOCH":"2022-01-07T20:33:34.028640","CLASSIFICATION_TYPE":"U","APOAPSIS":"548.601","OBJECT_NAME":"STARLINK-2253","REF_FRAME":"TEME","COUNTRY_CODE":"US","ECCENTRICITY":"0.00019790","ELEMENT_SET_NO":"999","RA_OF_ASC_NODE":"133.3939","MEAN_ANOMALY":"267.6477","REV_AT_EPOCH":"3614","RCS_SIZE":"LARGE","TIME_SYSTEM":"UTC","MEAN_MOTION_DDOT":"0.0000000000000","NORAD_CAT_ID":"48596","SEMIMAJOR_AXIS":"6925.365","BSTAR":"0.00001443900000"},{"OBJECT_NAME":"STARLINK-2255","ECCENTRICITY":"0.00017500","COUNTRY_CODE":"US","REF_FRAME":"TEME","PERIOD":"95.593","LAUNCH_DATE":"2021-05-15","CENTER_NAME":"EARTH","CLASSIFICATION_TYPE":"U","APOAPSIS":"548.456","EPOCH":"2022-01-07T15:57:33.712128","NORAD_CAT_ID":"48597","SEMIMAJOR_AXIS":"6925.379","BSTAR":"0.00008637800000","TIME_SYSTEM":"UTC","MEAN_MOTION_DDOT":"0.0000000000000","ELEMENT_SET_NO":"999","RCS_SIZE":"LARGE","MEAN_ANOMALY":"259.9610","RA_OF_ASC_NODE":"134.2642","REV_AT_EPOCH":"3692","EPHEMERIS_TYPE":"0","OBJECT_ID":"2021-041AW","SITE":"AFETR","MEAN_ELEMENT_THEORY":"SGP4","MEAN_MOTION":"15.06389969","TLE_LINE1":"1 48597U 21041AW  22007.66497352  .00001005  00000-0  86378-4 0  9996","GP_ID":"193426360","FILE":"3266804","INCLINATION":"53.0559","TLE_LINE2":"2 48597  53.0559 134.2642 0001750 100.1577 259.9610 15.06389969 36926","PERIAPSIS":"546.032","MEAN_MOTION_DOT":"0.00001005","DECAY_DATE":null,"OBJECT_TYPE":"PAYLOAD","ARG_OF_PERICENTER":"100.1577"}];
